#dP2018  8 17  0  0  0.00000000      96 __u+U ITR00 FIT  IAC
## 2014 432000.00000000   900.00000000 58347 0.0000000000000
+   86   C01C02C03C04C05C06C07C08C09C10C11C12C13C14E01E02E03
+        E04E05E07E08E09E11E12E14E18E19E24E26E30G01G02G03G04
+        G05G06G07G08G09G10G11G13G14G15G16G17G18G19G20G21G22
+        G23G24G25G26G27G28G29G30G31G32J01J02J03R01R02R03R04
+        R07R08R09R10R11R13R14R15R16R17R18R19R20R21R22R23R24
+        R26  0  0  0  0  0  0  0  0  0  0  0  0  0  0  0  0
++         0  0  0  0  0  0  0  0  0  0  0  0  0  0  0  0  0
++         0  0  0  0  0  0  0  0  0  0  0  0  0  0  0  0  0
++         0  0  0  0  0  0  0  0  0  0  0  0  0  0  0  0  0
++         0  0  0  0  0  0  0  0  0  0  0  0  0  0  0  0  0
++         0  0  0  0  0  0  0  0  0  0  0  0  0  0  0  0  0
++         0  0  0  0  0  0  0  0  0  0  0  0  0  0  0  0  0
%c M  cc GPS ccc cccc cccc cccc cccc ccccc ccccc ccccc ccccc
%c cc cc ccc ccc cccc cccc cccc cccc ccccc ccccc ccccc ccccc
%f  0.0000000  0.000000000  0.00000000000  0.000000000000000
%f  0.0000000  0.000000000  0.00000000000  0.000000000000000
%i    0    0    0    0      0      0      0      0         0
%i    0    0    0    0      0      0      0      0         0
/*                                                          
/*   RSA / INFORMATION & ANALYSIS CENTER (IAC) OF MCC       
/*   ULTRA-RAPID DETERMINATION                              
/* PCV:IGS14_2000 OL/AL:FES2004  NONE     YN ORB:CoN CLK:CoN
*  2018 08 17  1 30  0.00000000
PC01 -32304.752736  27056.481232    926.998949    479.895148
PC02   4403.059673  41935.863563   -249.341848   -108.129497
PC03 -14844.701628  39459.459995    982.019818    387.549857
PC04 -39619.814971  14414.847473    732.118556   -233.173181
PC05  21932.816924  35998.142507   -363.097520    -53.134772
PC06 -12041.739318  21561.743578 -33886.103858    230.417029
PC07 -23602.703992  32710.306176  11551.829689     20.398521
PC08  -8253.350668  34934.996878  22382.483936    486.843642
PC09   2199.685098  26413.037875 -32539.598614     32.161156
PC10 -11081.559403  33516.915305  22898.191313      2.749718
PC11  -8048.896083 -23633.549090 -12333.693749   -638.631222
PC12   8698.329583 -13404.895411 -22815.295039    562.936024
PC13    295.792516  41040.613322  10240.307988   -230.487229
PC14    695.915970 -16264.204748  22720.994423    303.770344
PE01 -23081.181797  15713.393215  -9800.453664   -414.381057
PE02  23085.486922 -15744.632543   9774.609027     23.786462
PE03  25303.997215  -4928.903790  14566.916607    -66.540273
PE04  -7765.673410  15654.362509 -23881.625645    -97.779022
PE05  28083.759501   8740.331893  -3336.946316    210.077362
PE07 -14412.910356 -17264.842230  19252.647272    -21.383898
PE08   7589.101393 -15597.226865  23996.094016   6521.980897
PE09  14605.769497  17011.026433 -19321.604440   6703.893642
PE11  11132.925198  27226.857968  -3248.180057   3807.388456
PE12  -2626.121240  25185.884981  15313.838475   4843.748131
PE14  24260.063908    223.290459 -18470.074729   6534.242749
PE18 -22804.086026 -11782.977429   7001.384625   5977.547101
PE19 -26282.744957   3634.433773 -13115.828530    -13.123911
PE24   3179.637488  18622.783784  22782.191253   6543.223604
PE26 -17991.496708 -13463.276604  19259.436012   5585.376676
PE30  14143.308807 -24300.201945  -9264.645816   5589.855042
PG01 -13200.323524  15320.792426  16893.015011    -77.269249
PG02  14350.465349   7477.172996 -20539.047844     25.885771
PG03 -22240.107303  13658.738030  -4758.309158    122.660118
PG04  -9850.923098 -11863.283839 -21909.100629     89.141677
PG05  22857.674701     49.200503 -13817.023557     -3.111758
PG06   7017.059031  21854.687674 -13316.102543    375.372317
PG07  -5733.155992  25342.877582  -3892.942898    140.472502
PG08 -21432.184033  -1817.130958  15725.747481   -111.907621
PG09  -4346.965248  15387.849104 -21234.499591    510.745263
PG10  -3517.455525 -14996.901845  21665.978377    186.484306
PG11 -12937.999081  10728.808950  20036.950201   -724.309468
PG13  22022.786972  10561.318334  10344.215892    -90.861314
PG14 -18398.284650 -18970.730158   3786.366538    -97.602472
PG15  20090.192255  -2933.578323  17095.590281   -348.329012
PG16 -22019.757918  -2753.675948 -15060.460509     13.258944
PG17  11867.325265  20356.206523  12765.676892    -66.482226
PG18 -15034.714220   6048.235011  20540.686232     46.479023
PG19  18377.744973  18784.475281   2973.748955   -411.131613
PG20   6211.740112 -18861.499275  17473.068137    514.275301
PG21   1097.917579 -26550.951042    257.637621   -351.494325
PG22 -24451.818851   9719.732529   3752.766737   -491.393876
PG23 -14635.627402   7916.942500 -20483.922268   -212.676554
PG24  14468.002609 -11352.436861  18939.922723    -54.068584
PG25  16149.259255 -16743.904276 -12780.638214   -632.742159
PG26 -14328.677886  -9187.033327 -20430.615030    -49.425136
PG27 -23281.995407 -11449.131979   6211.306688    353.342645
PG28   -494.111007  15672.466414  22067.498596    738.682766
PG29   6255.939611 -13686.682120 -21912.197524    394.599058
PG30    832.870790  25676.305076   6397.998185     36.685709
PG31  -7928.786395 -20170.388648 -15027.569390    100.156283
PG32 -13297.373181 -19719.404454  11959.758713   -449.627161
PJ01 -32542.840481  21625.326514 -11092.105944   -139.224830
PJ02 -25074.295689  31450.045927  -8499.957555     -9.053303
PJ03 -26338.392198  22915.496552  28752.712174     -3.375303
PR01  17788.927674   8262.358541 -16313.032164     30.636837
PR02  25367.421577   -214.445084   2449.338807    325.073620
PR03  16362.404362  -7964.767856  17896.336547    140.715433
PR04  -2681.071925 -10997.727944  22878.063160    272.651966
PR07 -16075.495938   8044.391786 -18077.058705    -44.963884
PR08   1893.777765  10983.027735 -22890.208961     21.750400
PR09 -15804.905857   8486.414284 -18084.680824     23.611836
PR10 -15037.876615  20214.183828  -3691.154460     29.871249
PR11  -5295.115328  20711.596738  13893.182165    -37.950501
PR13  15437.299609  -8625.570337  18377.039146    -13.670196
PR14  15024.909619 -20280.607517   3786.555562     30.109944
PR15   8357.021842 -21764.161870 -10231.484055    -14.813257
PR16  -6844.905359  -9548.985620 -22646.385977     99.492261
PR17   5380.472807 -11652.530095 -22034.330133    156.641594
PR18  -5856.299127 -22190.860966 -11185.143635    207.058607
PR19 -13428.822783 -20824.721585   6037.806334    -58.111254
PR20 -13516.385737  -6159.394706  20749.910294   -348.943768
PR21  -5015.705104  12031.446038  21925.672221      1.652727
PR22   7040.453663  22642.938077   9236.571828    -59.213976
PR23  14666.869074  18308.270493 -10035.797819    172.413773
PR24  13327.123147   4729.649799 -21257.956290   -170.204316
PR26 -13959.712880  -6949.713033  20183.269590     41.297154
EOF
